ARCTURUS                
1 56371U 23060B   26157.06483365 -.00000050  00000+0  00000+0 0  9993
2 56371   2.7479  80.0759 0002141  42.5501 227.6741  1.00271727 11342
GS-1                    
1 56372U 23060C   26156.65220053 -.00000211  00000+0  00000+0 0  9990
2 56372   2.6974  79.9630 0004012 279.8195 218.2961  1.00277841  7427
BEIDOU-3 G4             
1 56564U 23066A   26157.30386237 -.00000269  00000+0  00000+0 0  9992
2 56564   0.5001 328.6117 0004417 168.8265   6.6791  1.00267881 11288
ARABSAT-7B (BADR-8)     
1 56757U 23075A   26156.63966262  .00000157  00000+0  00000+0 0  9998
2 56757   0.0749  26.6091 0004933 356.9344 126.8188  1.00272024 11003
NVS-01 (IRNSS-1J)       
1 56759U 23076A   26157.01668735 -.00000322  00000+0  00000+0 0  9993
2 56759   2.1932 244.8619 0002894  42.5335 102.6531  1.00271183 11003
NUSANTARA TIGA (SATRIA) 
1 57045U 23086A   26156.73473477 -.00000222  00000+0  00000+0 0  9997
2 57045   0.0379 343.7809 0003568   1.5282 319.3542  1.00269213  9646
H2SAT (HEINRICH HERTZ)  
1 57213U 23093A   26155.13748118  .00000014  00000+0  00000+0 0  9990
2 57213   0.0448 123.4904 0000974 332.0680 207.2004  1.00272490 10787
SYRACUSE 4B             
1 57214U 23093B   26156.77582098 -.00000040  00000+0  00000+0 0  9995
2 57214   0.0174  10.2429 0000219 144.0914  12.7461  1.00274225  6859
JUPITER 3 (ECHOSTAR 24) 
1 57479U 23108A   26155.56176191  .00000000  00000+0  00000+0 0  9999
2 57479   0.0197 333.9789 0001202  99.7783 286.2561  1.00269922 10520
GALAXY 37 (G-37)        
1 57493U 23112A   26157.13447568  .00000061  00000+0  00000+0 0  9991
2 57493   0.0169 323.9471 0002121 111.8653 100.1624  1.00271424 10439
LUDI TANCE-4 01A        
1 57624U 23120A   26156.58766993 -.00000165  00000+0  00000+0 0  9996
2 57624  15.1089 194.2573 0000804  79.8156 281.2254  1.00271875 10432
TJS-10                  
1 58204U 23169A   26156.72079656 -.00000236  00000+0  00000+0 0  9992
2 58204   2.5143  80.6266 0003866  97.4341  68.0041  1.00268972  9424
ZHONGXING-6E            
1 58253U 23172A   26157.29909569  .00000000  00000+0  00000+0 0  9996
2 58253   0.0133 350.6321 0002514  90.2027  37.1012  1.00267815  9557
YAOGAN-41               
1 58582U 23197A   26156.30241932 -.00000351  00000+0  00000+0 0  9992
2 58582   3.1509 312.9485 0014164 192.1434 340.6332  1.00277565  9205
OVZON-3                 
1 58698U 24003A   26156.81706594  .00000064  00000+0  00000+0 0  9993
2 58698   0.0026 267.5956 0000363 215.2734 125.2237  1.00271758  7338
INSAT-3DS               
1 58990U 24033A   26157.09350223 -.00000143  00000+0  00000+0 0  9995
2 58990   0.0105 295.9880 0001399 136.5879 297.6693  1.00273709 46956
MERAH PUTIH 2           
1 58995U 24035A   26157.03794530 -.00000345  00000+0  00000+0 0  9993
2 58995   0.0161 291.2634 0001395 138.7170 311.1020  1.00272856  8476
TJS-11                  
1 59020U 24037A   26157.01339400 -.00000339  00000+0  00000+0 0  9997
2 59020   4.2127 326.9158 0004068 138.0461 267.6568  1.00069627  8479
HULIANWAN GAOGUI-01 (H*)
1 59069U 24040A   26156.56985747  .00000168  00000+0  00000+0 0  9993
2 59069   0.0677 327.4744 0003291  75.0933  90.2044  1.00271733  7217
EUTELSAT 36D            
1 59346U 24059A   26156.57029080  .00000168  00000+0  00000+0 0  9991
2 59346   0.0158   8.3491 0000458 124.5762   2.2583  1.00272077  8039
PAKSAT-MM1              
1 59915U 24104A   26154.64578588  .00000165  00000+0  00000+0 0  9999
2 59915   0.0154  42.0049 0002046  27.2826  93.4750  1.00274914  7394
ASTRA 1P (SES-24)       
1 60086U 24115A   26156.78093435  .00000132  00000+0  00000+0 0  9996
2 60086   0.0643  14.2112 0000729 359.6761 180.6635  1.00270482  7089
GOES 19                 
1 60133U 24119A   26156.97607111 -.00000235  00000+0  00000+0 0  9991
2 60133   0.0383 144.9083 0000659 350.7636  34.9263  1.00270769  6856
ZHONGXING-3A            
1 60179U 24122A   26156.36948149 -.00000301  00000+0  00000+0 0  9991
2 60179   0.0447 110.7697 0001356 342.1643  35.4546  1.00273621  7195
TURKSAT 6A              
1 60233U 24127A   26157.10531017  .00000159  00000+0  00000+0 0  9992
2 60233   0.0463 163.4786 0001701 319.3230 211.6396  1.00271703  6908
HULIANWAN GAOGUI-02 (H*)
1 60327U 24135A   26156.23713160 -.00000160  00000+0  00000+0 0  9992
2 60327   0.0419 353.0776 0007984  15.1546 124.0045  1.00271173  7381
ZHONGXING-4A            
1 60606U 24151A   26157.01443400 -.00000350  00000+0  00000+0 0  9995
2 60606   1.3439 270.9685 0000581 192.1527 274.7498  1.00271716  6640
HULIANWAN GAOGUI-03 (H*)
1 61503U 24181A   26156.61920917 -.00000229  00000+0  00000+0 0  9998
2 61503   0.0446 357.1623 0001490 106.3545 296.3114  1.00270862  6701
DSN-3 (KIRAMEKI-3)      
1 61733U 24198A   26156.94803041 -.00000237  00000+0  00000+0 0  9994
2 61733   0.0248 280.5605 0000860 224.0012 235.1813  1.00271490  5807
KOREASAT 6A             
1 61910U 24206A   26156.80004359 -.00000349  00000+0  00000+0 0  9995
2 61910   0.0202  85.2997 0000997 352.4940 220.4354  1.00268534  5728
OPTUS-X (ADS-01)        
1 62006U 24212A   26156.87935160 -.00000130  00000+0  00000+0 0  9997
2 62006   0.0133 296.6101 0001806 175.4126 255.2644  1.00271776  5643
