OBJECT_NAME,OBJECT_ID,EPOCH,MEAN_MOTION,ECCENTRICITY,INCLINATION,RA_OF_ASC_NODE,ARG_OF_PERICENTER,MEAN_ANOMALY,EPHEMERIS_TYPE,CLASSIFICATION_TYPE,NORAD_CAT_ID,ELEMENT_SET_NO,REV_AT_EPOCH,BSTAR,MEAN_MOTION_DOT,MEAN_MOTION_DDOT
ARCTURUS,2023-060B,2026-06-06T01:33:21.627360,1.00271727,.00021416,2.7479,80.0759,42.5501,227.6741,0,U,56371,999,1134,0,-.5E-6,0
GS-1,2023-060C,2026-06-05T15:39:10.125792,1.00277841,.0004012,2.6974,79.9630,279.8195,218.2961,0,U,56372,999,742,0,-.211E-5,0
BEIDOU-3 G4,2023-066A,2026-06-06T07:17:33.708768,1.00267881,.00044179,0.5001,328.6117,168.8265,6.6791,0,U,56564,999,1128,0,-.269E-5,0
ARABSAT-7B (BADR-8),2023-075A,2026-06-05T15:21:06.850368,1.00272024,.00049339,0.0749,26.6091,356.9344,126.8188,0,U,56757,999,1100,0,.157E-5,0
NVS-01 (IRNSS-1J),2023-076A,2026-06-06T00:24:01.787040,1.00271183,.00028949,2.1932,244.8619,42.5335,102.6531,0,U,56759,999,1100,0,-.322E-5,0
NUSANTARA TIGA (SATRIA),2023-086A,2026-06-05T17:38:01.084128,1.00269213,.00035681,0.0379,343.7809,1.5282,319.3542,0,U,57045,999,964,0,-.222E-5,0
H2SAT (HEINRICH HERTZ),2023-093A,2026-06-04T03:17:58.373952,1.00272490,.00009749,0.0448,123.4904,332.0680,207.2004,0,U,57213,999,1078,0,.14E-6,0
SYRACUSE 4B,2023-093B,2026-06-05T18:37:10.932672,1.00274225,.00002199,0.0174,10.2429,144.0914,12.7461,0,U,57214,999,685,0,-.4E-6,0
JUPITER 3 (ECHOSTAR 24),2023-108A,2026-06-04T13:28:56.229024,1.00269922,.00012025,0.0197,333.9789,99.7783,286.2561,0,U,57479,999,1052,0,0,0
GALAXY 37 (G-37),2023-112A,2026-06-06T03:13:38.698752,1.00271424,.00021215,0.0169,323.9471,111.8653,100.1624,0,U,57493,999,1043,0,.61E-6,0
LUDI TANCE-4 01A,2023-120A,2026-06-05T14:06:14.681952,1.00271875,.0000804,15.1089,194.2573,79.8156,281.2254,0,U,57624,999,1043,0,-.165E-5,0
TJS-10,2023-169A,2026-06-05T17:17:56.822784,1.00268972,.0003866,2.5143,80.6266,97.4341,68.0041,0,U,58204,999,942,0,-.236E-5,0
ZHONGXING-6E,2023-172A,2026-06-06T07:10:41.867616,1.00267815,.00025146,0.0133,350.6321,90.2027,37.1012,0,U,58253,999,955,0,0,0
YAOGAN-41,2023-197A,2026-06-05T07:15:29.029248,1.00277565,.0014164,3.1509,312.9485,192.1434,340.6332,0,U,58582,999,920,0,-.351E-5,0
OVZON-3,2024-003A,2026-06-05T19:36:34.497216,1.00271758,.00003633,0.0026,267.5956,215.2734,125.2237,0,U,58698,999,733,0,.64E-6,0
INSAT-3DS,2024-033A,2026-06-06T02:14:38.592672,1.00273709,.00013995,0.0105,295.9880,136.5879,297.6693,0,U,58990,999,4695,0,-.143E-5,0
MERAH PUTIH 2,2024-035A,2026-06-06T00:54:38.473920,1.00272856,.00013957,0.0161,291.2634,138.7170,311.1020,0,U,58995,999,847,0,-.345E-5,0
TJS-11,2024-037A,2026-06-06T00:19:17.241600,1.00069627,.0004068,4.2127,326.9158,138.0461,267.6568,0,U,59020,999,847,0,-.339E-5,0
HULIANWAN GAOGUI-01 (HG-01),2024-040A,2026-06-05T13:40:35.685408,1.00271733,.00032915,0.0677,327.4744,75.0933,90.2044,0,U,59069,999,721,0,.168E-5,0
EUTELSAT 36D,2024-059A,2026-06-05T13:41:13.125120,1.00272077,.00004584,0.0158,8.3491,124.5762,2.2583,0,U,59346,999,803,0,.168E-5,0
PAKSAT-MM1,2024-104A,2026-06-03T15:29:55.900032,1.00274914,.00020461,0.0154,42.0049,27.2826,93.4750,0,U,59915,999,739,0,.165E-5,0
ASTRA 1P (SES-24),2024-115A,2026-06-05T18:44:32.727840,1.00270482,.00007296,0.0643,14.2112,359.6761,180.6635,0,U,60086,999,708,0,.132E-5,0
GOES 19,2024-119A,2026-06-05T23:25:32.543904,1.00270769,.00006598,0.0383,144.9083,350.7636,34.9263,0,U,60133,999,685,0,-.235E-5,0
ZHONGXING-3A,2024-122A,2026-06-05T08:52:03.200736,1.00273621,.0001356,0.0447,110.7697,342.1643,35.4546,0,U,60179,999,719,0,-.301E-5,0
TURKSAT 6A,2024-127A,2026-06-06T02:31:38.798688,1.00271703,.00017012,0.0463,163.4786,319.3230,211.6396,0,U,60233,999,690,0,.159E-5,0
HULIANWAN GAOGUI-02 (HG-02),2024-135A,2026-06-05T05:41:28.170240,1.00271173,.0007984,0.0419,353.0776,15.1546,124.0045,0,U,60327,999,738,0,-.16E-5,0
ZHONGXING-4A,2024-151A,2026-06-06T00:20:47.097600,1.00271716,.00005813,1.3439,270.9685,192.1527,274.7498,0,U,60606,999,664,0,-.35E-5,0
HULIANWAN GAOGUI-03 (HG-03),2024-181A,2026-06-05T14:51:39.672288,1.00270862,.00014908,0.0446,357.1623,106.3545,296.3114,0,U,61503,999,670,0,-.229E-5,0
DSN-3 (KIRAMEKI-3),2024-198A,2026-06-05T22:45:09.827424,1.00271490,.00008604,0.0248,280.5605,224.0012,235.1813,0,U,61733,999,580,0,-.237E-5,0
KOREASAT 6A,2024-206A,2026-06-05T19:12:03.766176,1.00268534,.00009978,0.0202,85.2997,352.4940,220.4354,0,U,61910,999,572,0,-.349E-5,0
OPTUS-X (ADS-01),2024-212A,2026-06-05T21:06:15.978240,1.00271776,.00018066,0.0133,296.6101,175.4126,255.2644,0,U,62006,999,564,0,-.13E-5,0
